NORAD_CAT_ID,OBJECT_NAME,OBJECT_TYPE,EPOCH,MEAN_MOTION,ECCENTRICITY,INCLINATION,RA_OF_ASC_NODE,ARG_OF_PERICENTER,MEAN_ANOMALY,BSTAR,MEAN_MOTION_DOT,MEAN_MOTION_DDOT,TLE_LINE0,TLE_LINE1,TLE_LINE2,SEMIMAJOR_AXIS,PERIOD,APOGEE,PERIGEE,DECAYED
52660.0,STARLINK-4081,PAYLOAD,2022-05-24 15:13:40,15.8004733,0.0001492,53.2115,267.2404,19.9388,340.1693,-0.00085402,-0.00159997,0.0,0 STARLINK-4081,1 52660U 22017E   22144.63449771 -.00159997  00000-0 -85402-3 0  9999,2 52660  53.2115 267.2404 0001492  19.9388 340.1693 15.80047330  1803,6708.444,91.137,331.31,329.30800000000005,0.0
52660.0,STARLINK-4081,PAYLOAD,2022-05-24 20:00:01,15.79442512,0.0001594,53.2168,266.2519,31.7601,19.8405,-0.0052456,-0.00876948,0.0,0 STARLINK-4081,1 52660U 22053E   22144.83335648 -.00876948  00000-0 -52456-2 0  9992,2 52660  53.2168 266.2519 0001594  31.7601  19.8405 15.79442512  1833,6710.156,91.171,333.091,330.952,0.0
52660.0,STARLINK-4081,PAYLOAD,2022-05-24 22:00:00,15.79285142,0.0001674,53.2171,265.8354,35.0327,130.5847,-0.0052958999999999,-0.00878826,0.0,0 STARLINK-4081,1 52660U 22053E   22144.91667824 -.00878826  00000-0 -52959-2 0  9990,2 52660  53.2171 265.8354 0001674  35.0327 130.5847 15.79285142  1307,6710.602,91.18,333.59,331.344,0.0
52660.0,STARLINK-4081,PAYLOAD,2022-05-25 14:00:01,15.78026598,0.0001671,53.2175,262.5096,29.2162,327.351,-0.0056034,-0.00878143,0.0,0 STARLINK-4081,1 52660U 22053E   22145.58334491 -.00878143  00000-0 -56034-2 0  9995,2 52660  53.2175 262.5096 0001671  29.2162 327.3510 15.78026598  1307,6714.169,91.253,337.156,334.912,0.0
52660.0,STARLINK-4081,PAYLOAD,2022-05-25 20:00:01,15.7755414,0.0001447,53.2172,261.2644,32.7715,304.6215,-0.0057078999999999,-0.00875806,0.0,0 STARLINK-4081,1 52660U 22053E   22145.83334491 -.00875806  00000-0 -57079-2 0  9996,2 52660  53.2172 261.2644 0001447  32.7715 304.6215 15.77554140  1985,6715.51,91.281,338.347,336.403,0.0
52660.0,STARLINK-4081,PAYLOAD,2022-05-25 22:00:00,15.77396398,0.0001595,53.2171,260.8486,32.4932,58.4152,-0.0057507,-0.0087615,0.0,0 STARLINK-4081,1 52660U 22053E   22145.91667824 -.00876150  00000-0 -57507-2 0  9993,2 52660  53.2171 260.8486 0001595  32.4932  58.4152 15.77396398  1304,6715.958000000001,91.29,338.894,336.751,0.0
52660.0,STARLINK-4081,PAYLOAD,2022-05-26 14:00:01,15.76137599,0.0001668,53.2172,257.5326,34.9213,242.3997,-0.0060836,-0.00876183,0.0,0 STARLINK-4081,1 52660U 22053E   22146.58334491 -.00876183  00000-0 -60836-2 0  9993,2 52660  53.2172 257.5326 0001668  34.9213 242.3997 15.76137599  1307,6719.533,91.363,342.519,340.277,0.0
52660.0,STARLINK-4081,PAYLOAD,2022-05-26 20:00:01,15.75665924,0.0001473,53.2171,256.2905,41.6845,214.7608,-0.0062034,-0.00875004,0.0,0 STARLINK-4081,1 52660U 22053E   22146.83334491 -.00875004  00000-0 -62034-2 0  9994,2 52660  53.2171 256.2905 0001473  41.6845 214.7608 15.75665924  2147,6720.874,91.39,343.72900000000016,341.749,0.0
52660.0,STARLINK-4081,PAYLOAD,2022-05-26 22:00:00,15.75508801,0.0001393,53.2173,255.8762,36.2543,333.1386,-0.0062543,-0.00875949,0.0,0 STARLINK-4081,1 52660U 22053E   22146.91667824 -.00875949  00000-0 -62543-2 0  9995,2 52660  53.2173 255.8762 0001393  36.2543 333.1386 15.75508801  1307,6721.321,91.399,344.122,342.249,0.0
52660.0,STARLINK-4081,PAYLOAD,2022-05-27 14:00:01,15.74249954,0.0002052,53.2175,252.5693,28.632,162.6366,-0.0066113999999999,-0.00876379,0.0,0 STARLINK-4081,1 52660U 22053E   22147.58334491 -.00876379  00000-0 -66114-2 0  9996,2 52660  53.2175 252.5693 0002052  28.6320 162.6366 15.74249954  2266,6724.903,91.472,348.148,345.38800000000015,0.0
52660.0,STARLINK-4081,PAYLOAD,2022-05-27 22:00:01,15.73449464,0.000175,53.2172,250.9171,38.0897,243.0767,-0.0026062,-0.00355185,0.0,0 STARLINK-4081,1 52660U 22053E   22147.91668981 -.00355185  00000-0 -26062-2 0  9992,2 52660  53.2172 250.9171 0001750  38.0897 243.0767 15.73449464  2316,6727.184,91.519,350.226,347.872,0.0
52660.0,STARLINK-4081,PAYLOAD,2022-05-28 04:00:00,15.73203575,0.000181,53.2172,249.6784,32.6011,225.3356,8.524500000000001e-06,5.76e-06,0.0,0 STARLINK-4081,1 52660U 22053E   22148.16667824  .00000576  00000-0  85245-5 0  9995,2 52660  53.2172 249.6784 0001810  32.6011 225.3356 15.73203575  2358,6727.885,91.533,350.968,348.532,0.0
52660.0,STARLINK-4081,PAYLOAD,2022-05-28 12:00:00,15.73240189,0.0001764,53.2138,248.0261,320.5008,26.3868,0.00018006,0.00024768,0.0,0 STARLINK-4081,1 52660U 22053E   22148.50001157  .00024768  00000-0  18006-3 0  9992,2 52660  53.2138 248.0261 0001764 320.5008  26.3868 15.73240189  2401,6727.781,91.531,350.832,348.459,0.0
52660.0,STARLINK-4081,PAYLOAD,2022-05-28 14:00:01,15.73245237,0.000181,53.2138,247.6143,323.2468,135.8844,0.00020027,0.00027634,0.0,0 STARLINK-4081,1 52660U 22053E   22148.58334491  .00027634  00000-0  20027-3 0  9991,2 52660  53.2138 247.6143 0001810 323.2468 135.8844 15.73245237  1304,6727.766,91.531,350.849,348.413,0.0
52660.0,STARLINK-4081,PAYLOAD,2022-05-28 20:00:01,15.73310929,0.0001887,53.2137,246.3765,327.3697,108.5953,-0.00028042,-0.0003998,0.0,0 STARLINK-4081,1 52660U 22053E   22148.83335648 -.00039980  00000-0 -28042-3 0  9998,2 52660  53.2137 246.3765 0001887 327.3697 108.5953 15.73310929  2469,6727.579000000002,91.527,350.713,348.1740000000001,0.0
52660.0,STARLINK-4081,PAYLOAD,2022-05-28 22:00:00,15.73312695,0.0001796,53.2139,245.9636,328.3131,219.8485,-0.00039399,-0.00055819,0.0,0 STARLINK-4081,1 52660U 22053E   22148.91667824 -.00055819  00000-0 -39399-3 0  9997,2 52660  53.2139 245.9636 0001796 328.3131 219.8485 15.73312695  1306,6727.574000000001,91.527,350.647,348.231,0.0
52660.0,STARLINK-4081,PAYLOAD,2022-05-29 04:00:00,15.73244555,0.0001569,53.2141,244.725,334.1615,190.764,-9.0632e-05,-0.00013345,0.0,0 STARLINK-4081,1 52660U 22053E   22149.16667824 -.00013345  00000-0 -90632-4 0  9991,2 52660  53.2141 244.7250 0001569 334.1615 190.7640 15.73244555  2511,6727.768,91.531,350.689,348.57800000000015,0.0
52660.0,STARLINK-4081,PAYLOAD,2022-05-29 12:00:00,15.73277272,0.0001652,53.2146,243.0772,351.5385,262.3439,-0.0012342,-0.00170933,0.0,0 STARLINK-4081,1 52660U 22053E   22149.50001157 -.00170933  00000-0 -12342-2 0  9997,2 52660  53.2146 243.0772 0001652 351.5385 262.3439 15.73277272  2566,6727.675,91.529,350.651,348.42800000000005,0.0
52660.0,STARLINK-4081,PAYLOAD,2022-05-29 14:00:01,15.73265615,0.0001736,53.215,242.6651,355.4171,10.7105,-0.0015142,-0.00208546,0.0,0 STARLINK-4081,1 52660U 22053E   22149.58334491 -.00208546  00000-0 -15142-2 0  9998,2 52660  53.2150 242.6651 0001736 355.4171  10.7105 15.73265615  1305,6727.708000000001,91.529,350.741,348.405,0.0
52660.0,STARLINK-4081,PAYLOAD,2022-05-29 20:00:01,15.73128032,0.0001793,53.2148,241.4275,4.9826,337.8627,-0.0002968,-0.00041941,0.0,0 STARLINK-4081,1 52660U 22053E   22149.83334491 -.00041941  00000-0 -29680-3 0  9993,2 52660  53.2148 241.4275 0001793   4.9826 337.8627 15.73128032  2615,6728.1,91.537,351.172,348.759,0.0
52660.0,STARLINK-4081,PAYLOAD,2022-05-29 20:04:24,15.73190525,0.0002455,53.2137,241.4109,358.3779,1.7233,0.00011829,0.00016006,0.0,0 STARLINK-4081,1 52660U 22053E   22149.83639646  .00016006  00000-0  11829-3 0  9991,2 52660  53.2137 241.4109 0002455 358.3779   1.7233 15.73190525  2625,6727.922,91.534,351.439,348.135,0.0
52660.0,STARLINK-4081,PAYLOAD,2022-05-30 04:00:00,15.7306622,0.0001565999999999,53.2159,239.7766,13.815,57.8543,0.00097026,0.00137004,0.0,0 STARLINK-4081,1 52660U 22053E   22150.16667824  .00137004  00000-0  97026-3 0  9993,2 52660  53.2159 239.7766 0001566  13.8150  57.8543 15.73066220  2671,6728.276999999999,91.541,351.195,349.088,0.0
52660.0,STARLINK-4081,PAYLOAD,2022-05-30 12:50:45,15.73015284,0.0002543,53.2143,237.9527,355.0502,5.0493,-0.00073657,-0.00101964,0.0,0 STARLINK-4081,1 52660U 22053E   22150.53525110 -.00101964  00000-0 -73657-3 0  9997,2 52660  53.2143 237.9527 0002543 355.0502   5.0493 15.73015284  2737,6728.422,91.544,351.99800000000016,348.576,0.0
52660.0,STARLINK-4081,PAYLOAD,2022-05-30 14:00:01,15.73201304,0.0001972,53.216,237.7175,18.6218,254.0855,0.00049463,0.0006938,0.0,0 STARLINK-4081,1 52660U 22053E   22150.58334491  .00069380  00000-0  49463-3 0  9993,2 52660  53.2160 237.7175 0001972  18.6218 254.0855 15.73201304  1304,6727.891,91.533,351.083,348.43,0.0
52660.0,STARLINK-4081,PAYLOAD,2022-05-30 20:28:08,15.73212625,0.0001148,53.2144,236.3808,29.2097,330.8987,0.00050785,0.00071299,0.0,0 STARLINK-4081,1 52660U 22053E   22150.85287621  .00071299  00000-0  50785-3 0  9996,2 52660  53.2144 236.3808 0001148  29.2097 330.8987 15.73212625  2782,6727.859,91.532,350.497,348.952,0.0
52660.0,STARLINK-4081,PAYLOAD,2022-05-30 22:00:00,15.7326478,0.0001934,53.2161,236.0668,21.0913,340.556,-0.00059903,-0.00084094,0.0,0 STARLINK-4081,1 52660U 22053E   22150.91667824 -.00084094  00000-0 -59903-3 0  9990,2 52660  53.2161 236.0668 0001934  21.0913 340.5560 15.73264780  1314,6727.71,91.529,350.87699999999984,348.274,0.0
52660.0,STARLINK-4081,PAYLOAD,2022-05-31 04:00:00,15.73175044,0.0001906,53.2162,234.8284,26.654,311.7259,0.00063151,0.00088858,0.0,0 STARLINK-4081,1 52660U 22053E   22151.16667824  .00088858  00000-0  63151-3 0  9998,2 52660  53.2162 234.8284 0001906  26.6540 311.7259 15.73175044  2827,6727.965999999999,91.535,351.11400000000015,348.5490000000001,0.0
52660.0,STARLINK-4081,PAYLOAD,2022-05-31 05:37:01,15.73234808,0.0001626,53.2147,234.4948,32.0729,328.0389,0.00028285,0.00039322,0.0,0 STARLINK-4081,1 52660U 22053E   22151.23404205  .00039322  00000-0  28285-3 0  9999,2 52660  53.2147 234.4948 0001626  32.0729 328.0389 15.73234808  2843,6727.795999999999,91.531,350.755,348.56699999999995,0.0
52660.0,STARLINK-4081,PAYLOAD,2022-05-31 12:00:00,15.73247916,0.0002128,53.2161,233.1811,22.4127,44.8975,-0.00065047,-0.00091124,0.0,0 STARLINK-4081,1 52660U 22053E   22151.50001157 -.00091124  00000-0 -65047-3 0  9995,2 52660  53.2161 233.1811 0002128  22.4127  44.8975 15.73247916  2889,6727.759,91.53,351.055,348.19199999999995,0.0
